{"type": "FeatureCollection", "features": [ {"type": "Feature", "properties": {"norad_id": 41836, "name": "HIMAWARI-9", "group": "weather", "lat": 0.011063011096634243, "lon": 148.07830508774725, "alt_km": 35796.40909452357, "timestamp": "2025-12-04T19:33:59.278177+00:00", "meta": {"OBJECT_NAME": "HIMAWARI-9", "OBJECT_ID": "2016-064A", "EPOCH": "2025-12-04T07:32:51.683712", "MEAN_MOTION": 1.00266944, "ECCENTRICITY": 0.00023577, "INCLINATION": 0.0196, "RA_OF_ASC_NODE": 354.583, "ARG_OF_PERICENTER": 307.7128, "MEAN_ANOMALY": 25.0479, "EPHEMERIS_TYPE": 0, "CLASSIFICATION_TYPE": "U", "NORAD_CAT_ID": 41836, "ELEMENT_SET_NO": 999, "REV_AT_EPOCH": 3325, "BSTAR": 0, "MEAN_MOTION_DOT": 0, "MEAN_MOTION_DDOT": 0}, "tle": {"line1": "1 41836U 16064A   25338.31448708  .00000000  00000+0  00000+0 0  9993", "line2": "2 41836   0.0196 354.5830 0002357 307.7128  25.0479  1.00266944 33255"}}, "geometry": {"type": "Point", "coordinates": [148.07830508774725, 0.011063011096634243]}}, {"type": "Feature", "properties": {"norad_id": 41866, "name": "GOES 16", "group": "weather", "lat": -0.011761565134552565, "lon": -97.31003948950246, "alt_km": 35771.79142539405, "timestamp": "2025-12-04T19:33:59.278188+00:00", "meta": {"OBJECT_NAME": "GOES 16", "OBJECT_ID": "2016-071A", "EPOCH": "2025-12-04T06:22:50.889792", "MEAN_MOTION": 1.00270654, "ECCENTRICITY": 0.00034612, "INCLINATION": 0.0616, "RA_OF_ASC_NODE": 105.3349, "ARG_OF_PERICENTER": 152.3416, "MEAN_ANOMALY": 166.7054, "EPHEMERIS_TYPE": 0, "CLASSIFICATION_TYPE": "U", "NORAD_CAT_ID": 41866, "ELEMENT_SET_NO": 999, "REV_AT_EPOCH": 3314, "BSTAR": 0, "MEAN_MOTION_DOT": -7.5e-07, "MEAN_MOTION_DDOT": 0}, "tle": {"line1": "1 41866U 16071A   25338.26586678 -.00000075  00000+0  00000+0 0  9990", "line2": "2 41866   0.0616 105.3349 0003461 152.3416 166.7054  1.00270654 33146"}}, "geometry": {"type": "Point", "coordinates": [-97.31003948950246, -0.011761565134552565]}}, {"type": "Feature", "properties": {"norad_id": 41882, "name": "FENGYUN 4A", "group": "weather", "lat": 1.3790657303558274, "lon": 131.05015592774836, "alt_km": 35785.87006420312, "timestamp": "2025-12-04T19:33:59.278198+00:00", "meta": {"OBJECT_NAME": "FENGYUN 4A", "OBJECT_ID": "2016-077A", "EPOCH": "2025-12-04T14:18:46.240128", "MEAN_MOTION": 1.00277548, "ECCENTRICITY": 0.0005054, "INCLINATION": 1.8271, "RA_OF_ASC_NODE": 82.471, "ARG_OF_PERICENTER": 142.5089, "MEAN_ANOMALY": 187.135, "EPHEMERIS_TYPE": 0, "CLASSIFICATION_TYPE": "U", "NORAD_CAT_ID": 41882, "ELEMENT_SET_NO": 999, "REV_AT_EPOCH": 3297, "BSTAR": 0, "MEAN_MOTION_DOT": -3.43e-06, "MEAN_MOTION_DDOT": 0}, "tle": {"line1": "1 41882U 16077A   25338.59636852 -.00000343  00000+0  00000+0 0  9998", "line2": "2 41882   1.8271  82.4710 0005054 142.5089 187.1350  1.00277548 32979"}}, "geometry": {"type": "Point", "coordinates": [131.05015592774836, 1.3790657303558274]}}, {"type": "Feature", "properties": {"norad_id": 41884, "name": "CYGFM05", "group": "weather", "lat": 30.65401318626433, "lon": 156.90919473540137, "alt_km": 414.5917334933629, "timestamp": "2025-12-04T19:33:59.278208+00:00", "meta": {"OBJECT_NAME": "CYGFM05", "OBJECT_ID": "2016-078A", "EPOCH": "2025-12-03T18:31:05.681856", "MEAN_MOTION": 15.47125161, "ECCENTRICITY": 0.00094122, "INCLINATION": 34.9582, "RA_OF_ASC_NODE": 105.6898, "ARG_OF_PERICENTER": 97.1465, "MEAN_ANOMALY": 263.0327, "EPHEMERIS_TYPE": 0, "CLASSIFICATION_TYPE": "U", "NORAD_CAT_ID": 41884, "ELEMENT_SET_NO": 999, "REV_AT_EPOCH": 49837, "BSTAR": 0.00060726194, "MEAN_MOTION_DOT": 0.00031867, "MEAN_MOTION_DDOT": 0}, "tle": {"line1": "1 41884U 16078A   25337.77159354  .00031867  00000+0  60726-3 0  9996", "line2": "2 41884  34.9582 105.6898 0009412  97.1465 263.0327 15.47125161498370"}}, "geometry": {"type": "Point", "coordinates": [156.90919473540137, 30.65401318626433]}}, {"type": "Feature", "properties": {"norad_id": 41885, "name": "CYGFM04", "group": "weather", "lat": -24.067827562030413, "lon": -66.33713990092055, "alt_km": 418.0802192086776, "timestamp": "2025-12-04T19:33:59.278218+00:00", "meta": {"OBJECT_NAME": "CYGFM04", "OBJECT_ID": "2016-078B", "EPOCH": "2025-12-03T16:19:08.760864", "MEAN_MOTION": 15.49783379, "ECCENTRICITY": 0.00084885, "INCLINATION": 34.9344, "RA_OF_ASC_NODE": 81.322, "ARG_OF_PERICENTER": 126.9571, "MEAN_ANOMALY": 233.1929, "EPHEMERIS_TYPE": 0, "CLASSIFICATION_TYPE": "U", "NORAD_CAT_ID": 41885, "ELEMENT_SET_NO": 999, "REV_AT_EPOCH": 49853, "BSTAR": 0.0011385967, "MEAN_MOTION_DOT": 0.0006591, "MEAN_MOTION_DDOT": 0}, "tle": {"line1": "1 41885U 16078B   25337.67996251  .00065910  00000+0  11386-2 0  9994", "line2": "2 41885  34.9344  81.3220 0008488 126.9571 233.1929 15.49783379498534"}}, "geometry": {"type": "Point", "coordinates": [-66.33713990092055, -24.067827562030413]}}, {"type": "Feature", "properties": {"norad_id": 41886, "name": "CYGFM02", "group": "weather", "lat": -10.926216819574547, "lon": -91.64259479501834, "alt_km": 410.21367342232315, "timestamp": "2025-12-04T19:33:59.278228+00:00", "meta": {"OBJECT_NAME": "CYGFM02", "OBJECT_ID": "2016-078C", "EPOCH": "2025-12-03T16:27:15.350976", "MEAN_MOTION": 15.51121687, "ECCENTRICITY": 0.00102169, "INCLINATION": 34.9434, "RA_OF_ASC_NODE": 79.7274, "ARG_OF_PERICENTER": 125.87, "MEAN_ANOMALY": 234.2972, "EPHEMERIS_TYPE": 0, "CLASSIFICATION_TYPE": "U", "NORAD_CAT_ID": 41886, "ELEMENT_SET_NO": 999, "REV_AT_EPOCH": 49866, "BSTAR": 0.00061920212, "MEAN_MOTION_DOT": 0.00037463, "MEAN_MOTION_DDOT": 0}, "tle": {"line1": "1 41886U 16078C   25337.68559434  .00037463  00000+0  61920-3 0  9996", "line2": "2 41886  34.9434  79.7274 0010216 125.8700 234.2972 15.51121687498664"}}, "geometry": {"type": "Point", "coordinates": [-91.64259479501834, -10.926216819574547]}}, {"type": "Feature", "properties": {"norad_id": 41887, "name": "CYGFM01", "group": "weather", "lat": 34.91864453511579, "lon": -167.81143901800652, "alt_km": 410.7937173966766, "timestamp": "2025-12-04T19:33:59.278237+00:00", "meta": {"OBJECT_NAME": "CYGFM01", "OBJECT_ID": "2016-078D", "EPOCH": "2025-12-03T18:24:28.844928", "MEAN_MOTION": 15.4768667, "ECCENTRICITY": 0.00090329, "INCLINATION": 34.9412, "RA_OF_ASC_NODE": 108.1317, "ARG_OF_PERICENTER": 88.3823, "MEAN_ANOMALY": 271.7933, "EPHEMERIS_TYPE": 0, "CLASSIFICATION_TYPE": "U", "NORAD_CAT_ID": 41887, "ELEMENT_SET_NO": 999, "REV_AT_EPOCH": 49831, "BSTAR": 0.00054644493, "MEAN_MOTION_DOT": 0.00029225, "MEAN_MOTION_DDOT": 0}, "tle": {"line1": "1 41887U 16078D   25337.76700052  .00029225  00000+0  54644-3 0  9992", "line2": "2 41887  34.9412 108.1317 0009032  88.3823 271.7933 15.47686670498317"}}, "geometry": {"type": "Point", "coordinates": [-167.81143901800652, 34.91864453511579]}}, {"type": "Feature", "properties": {"norad_id": 41888, "name": "CYGFM08", "group": "weather", "lat": 33.576823860735246, "lon": -167.5563862286413, "alt_km": 406.75658429396935, "timestamp": "2025-12-04T19:33:59.278247+00:00", "meta": {"OBJECT_NAME": "CYGFM08", "OBJECT_ID": "2016-078E", "EPOCH": "2025-12-04T00:33:13.378464", "MEAN_MOTION": 15.48884344, "ECCENTRICITY": 0.00107018, "INCLINATION": 34.9454, "RA_OF_ASC_NODE": 89.5504, "ARG_OF_PERICENTER": 117.3678, "MEAN_ANOMALY": 242.8134, "EPHEMERIS_TYPE": 0, "CLASSIFICATION_TYPE": "U", "NORAD_CAT_ID": 41888, "ELEMENT_SET_NO": 999, "REV_AT_EPOCH": 49858, "BSTAR": 0.00067089551, "MEAN_MOTION_DOT": 0.00037497, "MEAN_MOTION_DDOT": 0}, "tle": {"line1": "1 41888U 16078E   25338.02307151  .00037497  00000+0  67090-3 0  9995", "line2": "2 41888  34.9454  89.5504 0010701 117.3678 242.8134 15.48884344498580"}}, "geometry": {"type": "Point", "coordinates": [-167.5563862286413, 33.576823860735246]}}, {"type": "Feature", "properties": {"norad_id": 41890, "name": "CYGFM07", "group": "weather", "lat": 33.76805027297852, "lon": 146.62012419741436, "alt_km": 409.4511515213362, "timestamp": "2025-12-04T19:33:59.278258+00:00", "meta": {"OBJECT_NAME": "CYGFM07", "OBJECT_ID": "2016-078G", "EPOCH": "2025-12-04T06:52:10.066368", "MEAN_MOTION": 15.49480365, "ECCENTRICITY": 0.00090582, "INCLINATION": 34.9472, "RA_OF_ASC_NODE": 76.8566, "ARG_OF_PERICENTER": 138.1908, "MEAN_ANOMALY": 221.9508, "EPHEMERIS_TYPE": 0, "CLASSIFICATION_TYPE": "U", "NORAD_CAT_ID": 41890, "ELEMENT_SET_NO": 999, "REV_AT_EPOCH": 49864, "BSTAR": 0.00074110261, "MEAN_MOTION_DOT": 0.00042306, "MEAN_MOTION_DDOT": 0}, "tle": {"line1": "1 41890U 16078G   25338.28622762  .00042306  00000+0  74110-3 0  9990", "line2": "2 41890  34.9472  76.8566 0009058 138.1908 221.9508 15.49480365498646"}}, "geometry": {"type": "Point", "coordinates": [146.62012419741436, 33.76805027297852]}}, {"type": "Feature", "properties": {"norad_id": 41891, "name": "CYGFM03", "group": "weather", "lat": -34.83560526686887, "lon": -10.06605434937158, "alt_km": 425.0970222209844, "timestamp": "2025-12-04T19:33:59.278267+00:00", "meta": {"OBJECT_NAME": "CYGFM03", "OBJECT_ID": "2016-078H", "EPOCH": "2025-12-03T17:38:56.092416", "MEAN_MOTION": 15.49341165, "ECCENTRICITY": 0.00083321, "INCLINATION": 34.9427, "RA_OF_ASC_NODE": 82.3773, "ARG_OF_PERICENTER": 119.5698, "MEAN_ANOMALY": 240.5855, "EPHEMERIS_TYPE": 0, "CLASSIFICATION_TYPE": "U", "NORAD_CAT_ID": 41891, "ELEMENT_SET_NO": 999, "REV_AT_EPOCH": 49853, "BSTAR": 0.00061975567, "MEAN_MOTION_DOT": 0.00035157, "MEAN_MOTION_DDOT": 0}, "tle": {"line1": "1 41891U 16078H   25337.73537144  .00035157  00000+0  61976-3 0  9991", "line2": "2 41891  34.9427  82.3773 0008332 119.5698 240.5855 15.49341165498536"}}, "geometry": {"type": "Point", "coordinates": [-10.06605434937158, -34.83560526686887]}}]}